{"type": "FeatureCollection", "features": [ {"type": "Feature", "properties": {"norad_id": 31566, "name": "FENGYUN 1C DEB", "group": "fengyun-1c-debris", "lat": 62.810731013624036, "lon": 42.34385211277724, "alt_km": 766.8908518347826, "timestamp": "2025-12-26T17:24:55.002605+00:00", "meta": {"OBJECT_NAME": "FENGYUN 1C DEB", "OBJECT_ID": "1999-025BZH", "EPOCH": "2025-12-25T10:00:06.158016", "MEAN_MOTION": 14.37538572, "ECCENTRICITY": 0.0023369, "INCLINATION": 98.9474, "RA_OF_ASC_NODE": 58.8425, "ARG_OF_PERICENTER": 315.2274, "MEAN_ANOMALY": 178.8735, "EPHEMERIS_TYPE": 0, "CLASSIFICATION_TYPE": "U", "NORAD_CAT_ID": 31566, "ELEMENT_SET_NO": 999, "REV_AT_EPOCH": 96573, "BSTAR": 0.0021241, "MEAN_MOTION_DOT": 6.343e-05, "MEAN_MOTION_DDOT": 0}, "tle": {"line1": "1 31566U 99025BZH 25359.41673794  .00006343  00000+0  21241-2 0  9998", "line2": "2 31566  98.9474  58.8425 0023369 315.2274 178.8735 14.37538572965737"}}, "geometry": {"type": "Point", "coordinates": [42.34385211277724, 62.810731013624036]}}, {"type": "Feature", "properties": {"norad_id": 31567, "name": "FENGYUN 1C DEB", "group": "fengyun-1c-debris", "lat": -76.02404965715225, "lon": -66.60679768053049, "alt_km": 789.4233894871686, "timestamp": "2025-12-26T17:24:55.002615+00:00", "meta": {"OBJECT_NAME": "FENGYUN 1C DEB", "OBJECT_ID": "1999-025BZJ", "EPOCH": "2025-12-26T02:17:28.696992", "MEAN_MOTION": 13.92983311, "ECCENTRICITY": 0.01863174, "INCLINATION": 102.3177, "RA_OF_ASC_NODE": 231.1667, "ARG_OF_PERICENTER": 276.7653, "MEAN_ANOMALY": 81.2326, "EPHEMERIS_TYPE": 0, "CLASSIFICATION_TYPE": "U", "NORAD_CAT_ID": 31567, "ELEMENT_SET_NO": 999, "REV_AT_EPOCH": 67595, "BSTAR": 0.0026184906, "MEAN_MOTION_DOT": 3.855e-05, "MEAN_MOTION_DDOT": 0}, "tle": {"line1": "1 31567U 99025BZJ 25360.09547103  .00003855  00000+0  26185-2 0  9996", "line2": "2 31567 102.3177 231.1667 0186317 276.7653  81.2326 13.92983311675957"}}, "geometry": {"type": "Point", "coordinates": [-66.60679768053049, -76.02404965715225]}}, {"type": "Feature", "properties": {"norad_id": 31568, "name": "FENGYUN 1C DEB", "group": "fengyun-1c-debris", "lat": -73.50315234551506, "lon": 21.172361113957056, "alt_km": 978.4741775056373, "timestamp": "2025-12-26T17:24:55.002625+00:00", "meta": {"OBJECT_NAME": "FENGYUN 1C DEB", "OBJECT_ID": "1999-025BZK", "EPOCH": "2025-12-22T23:13:36.644736", "MEAN_MOTION": 14.03431945, "ECCENTRICITY": 0.01239953, "INCLINATION": 102.049, "RA_OF_ASC_NODE": 242.3634, "ARG_OF_PERICENTER": 93.8828, "MEAN_ANOMALY": 267.6513, "EPHEMERIS_TYPE": 0, "CLASSIFICATION_TYPE": "U", "NORAD_CAT_ID": 31568, "ELEMENT_SET_NO": 999, "REV_AT_EPOCH": 94723, "BSTAR": 0.0030433024, "MEAN_MOTION_DOT": 5.034e-05, "MEAN_MOTION_DDOT": 0}, "tle": {"line1": "1 31568U 99025BZK 25356.96778524  .00005034  00000+0  30433-2 0  9993", "line2": "2 31568 102.0490 242.3634 0123995  93.8828 267.6513 14.03431945947231"}}, "geometry": {"type": "Point", "coordinates": [21.172361113957056, -73.50315234551506]}}, {"type": "Feature", "properties": {"norad_id": 31569, "name": "FENGYUN 1C DEB", "group": "fengyun-1c-debris", "lat": 48.18654810843125, "lon": 148.54877434102698, "alt_km": 874.5701306031578, "timestamp": "2025-12-26T17:24:55.002635+00:00", "meta": {"OBJECT_NAME": "FENGYUN 1C DEB", "OBJECT_ID": "1999-025BZL", "EPOCH": "2025-12-26T06:00:17.966880", "MEAN_MOTION": 13.95617313, "ECCENTRICITY": 0.01748559, "INCLINATION": 102.6154, "RA_OF_ASC_NODE": 162.3987, "ARG_OF_PERICENTER": 333.5969, "MEAN_ANOMALY": 206.7911, "EPHEMERIS_TYPE": 0, "CLASSIFICATION_TYPE": "U", "NORAD_CAT_ID": 31569, "ELEMENT_SET_NO": 999, "REV_AT_EPOCH": 93867, "BSTAR": 0.0023981005, "MEAN_MOTION_DOT": 3.638e-05, "MEAN_MOTION_DDOT": 0}, "tle": {"line1": "1 31569U 99025BZL 25360.25020795  .00003638  00000+0  23981-2 0  9999", "line2": "2 31569 102.6154 162.3987 0174855 333.5969 206.7911 13.95617313938677"}}, "geometry": {"type": "Point", "coordinates": [148.54877434102698, 48.18654810843125]}}, {"type": "Feature", "properties": {"norad_id": 31570, "name": "FENGYUN 1C DEB", "group": "fengyun-1c-debris", "lat": -13.937337994160792, "lon": 48.81082734511048, "alt_km": 913.2237843523635, "timestamp": "2025-12-26T17:24:55.002645+00:00", "meta": {"OBJECT_NAME": "FENGYUN 1C DEB", "OBJECT_ID": "1999-025BZM", "EPOCH": "2025-12-19T23:45:35.930016", "MEAN_MOTION": 14.25330142, "ECCENTRICITY": 0.01547682, "INCLINATION": 102.5663, "RA_OF_ASC_NODE": 36.0247, "ARG_OF_PERICENTER": 206.1842, "MEAN_ANOMALY": 153.1437, "EPHEMERIS_TYPE": 0, "CLASSIFICATION_TYPE": "U", "NORAD_CAT_ID": 31570, "ELEMENT_SET_NO": 999, "REV_AT_EPOCH": 63470, "BSTAR": 0.0019503601, "MEAN_MOTION_DOT": 5.132e-05, "MEAN_MOTION_DDOT": 0}, "tle": {"line1": "1 31570U 99025BZM 25353.98999919  .00005132  00000+0  19504-2 0  9993", "line2": "2 31570 102.5663  36.0247 0154768 206.1842 153.1437 14.25330142634706"}}, "geometry": {"type": "Point", "coordinates": [48.81082734511048, -13.937337994160792]}}, {"type": "Feature", "properties": {"norad_id": 31608, "name": "FENGYUN 1C DEB", "group": "fengyun-1c-debris", "lat": -59.4666038420087, "lon": -74.86094388524315, "alt_km": 654.4387933466014, "timestamp": "2025-12-26T17:24:55.002655+00:00", "meta": {"OBJECT_NAME": "FENGYUN 1C DEB", "OBJECT_ID": "1999-025BZN", "EPOCH": "2025-12-17T14:09:29.850912", "MEAN_MOTION": 14.85908283, "ECCENTRICITY": 0.01457059, "INCLINATION": 98.3797, "RA_OF_ASC_NODE": 109.9897, "ARG_OF_PERICENTER": 22.0076, "MEAN_ANOMALY": 338.7309, "EPHEMERIS_TYPE": 0, "CLASSIFICATION_TYPE": "U", "NORAD_CAT_ID": 31608, "ELEMENT_SET_NO": 999, "REV_AT_EPOCH": 98705, "BSTAR": 0.00045964647, "MEAN_MOTION_DOT": 4.79e-05, "MEAN_MOTION_DDOT": 0}, "tle": {"line1": "1 31608U 99025BZN 25351.58992883  .00004790  00000+0  45965-3 0  9992", "line2": "2 31608  98.3797 109.9897 0145705  22.0076 338.7309 14.85908283987055"}}, "geometry": {"type": "Point", "coordinates": [-74.86094388524315, -59.4666038420087]}}, {"type": "Feature", "properties": {"norad_id": 31609, "name": "FENGYUN 1C DEB", "group": "fengyun-1c-debris", "lat": 29.934781214026483, "lon": -144.9141288010736, "alt_km": 882.3967277997126, "timestamp": "2025-12-26T17:24:55.002665+00:00", "meta": {"OBJECT_NAME": "FENGYUN 1C DEB", "OBJECT_ID": "1999-025BZP", "EPOCH": "2025-12-22T21:42:13.279104", "MEAN_MOTION": 14.15844126, "ECCENTRICITY": 0.0094714, "INCLINATION": 99.2139, "RA_OF_ASC_NODE": 25.7728, "ARG_OF_PERICENTER": 291.5289, "MEAN_ANOMALY": 191.9396, "EPHEMERIS_TYPE": 0, "CLASSIFICATION_TYPE": "U", "NORAD_CAT_ID": 31609, "ELEMENT_SET_NO": 999, "REV_AT_EPOCH": 66228, "BSTAR": 0.002391, "MEAN_MOTION_DOT": 4.866e-05, "MEAN_MOTION_DDOT": 0}, "tle": {"line1": "1 31609U 99025BZP 25356.90432036  .00004866  00000+0  23910-2 0  9992", "line2": "2 31609  99.2139  25.7728 0094714 291.5289 191.9396 14.15844126662284"}}, "geometry": {"type": "Point", "coordinates": [-144.9141288010736, 29.934781214026483]}}, {"type": "Feature", "properties": {"norad_id": 31612, "name": "FENGYUN 1C DEB", "group": "fengyun-1c-debris", "lat": -40.11100904253279, "lon": -68.10128679452521, "alt_km": 344.78814718207923, "timestamp": "2025-12-26T17:24:55.002675+00:00", "meta": {"OBJECT_NAME": "FENGYUN 1C DEB", "OBJECT_ID": "1999-025BZS", "EPOCH": "2025-12-24T12:18:55.437696", "MEAN_MOTION": 15.76867057, "ECCENTRICITY": 0.00289133, "INCLINATION": 100.3352, "RA_OF_ASC_NODE": 279.7575, "ARG_OF_PERICENTER": 69.6448, "MEAN_ANOMALY": 290.791, "EPHEMERIS_TYPE": 0, "CLASSIFICATION_TYPE": "U", "NORAD_CAT_ID": 31612, "ELEMENT_SET_NO": 999, "REV_AT_EPOCH": 190, "BSTAR": 0.0023631516, "MEAN_MOTION_DOT": 0.00407886, "MEAN_MOTION_DDOT": 0}, "tle": {"line1": "1 31612U 99025BZS 25358.51314164  .00407886  00000+0  23632-2 0  9996", "line2": "2 31612 100.3352 279.7575 0028913  69.6448 290.7910 15.76867057  1901"}}, "geometry": {"type": "Point", "coordinates": [-68.10128679452521, -40.11100904253279]}}, {"type": "Feature", "properties": {"norad_id": 31613, "name": "FENGYUN 1C DEB", "group": "fengyun-1c-debris", "lat": 24.94294403616481, "lon": -178.02402292133783, "alt_km": 834.673776543943, "timestamp": "2025-12-26T17:24:55.002685+00:00", "meta": {"OBJECT_NAME": "FENGYUN 1C DEB", "OBJECT_ID": "1999-025BZT", "EPOCH": "2025-12-23T06:31:23.498400", "MEAN_MOTION": 13.63471347, "ECCENTRICITY": 0.03426742, "INCLINATION": 98.424, "RA_OF_ASC_NODE": 182.93, "ARG_OF_PERICENTER": 78.1321, "MEAN_ANOMALY": 285.8034, "EPHEMERIS_TYPE": 0, "CLASSIFICATION_TYPE": "U", "NORAD_CAT_ID": 31613, "ELEMENT_SET_NO": 999, "REV_AT_EPOCH": 91905, "BSTAR": 0.0011595288, "MEAN_MOTION_DOT": 1.328e-05, "MEAN_MOTION_DDOT": 0}, "tle": {"line1": "1 31613U 99025BZT 25357.27179975  .00001328  00000+0  11595-2 0  9994", "line2": "2 31613  98.4240 182.9300 0342674  78.1321 285.8034 13.63471347919057"}}, "geometry": {"type": "Point", "coordinates": [-178.02402292133783, 24.94294403616481]}}, {"type": "Feature", "properties": {"norad_id": 31614, "name": "FENGYUN 1C DEB", "group": "fengyun-1c-debris", "lat": 27.527017035029385, "lon": -96.1186150384839, "alt_km": 560.3638032475747, "timestamp": "2025-12-26T17:24:55.002695+00:00", "meta": {"OBJECT_NAME": "FENGYUN 1C DEB", "OBJECT_ID": "1999-025BZU", "EPOCH": "2025-12-24T17:29:41.103744", "MEAN_MOTION": 14.99477571, "ECCENTRICITY": 0.00177456, "INCLINATION": 98.9741, "RA_OF_ASC_NODE": 266.3069, "ARG_OF_PERICENTER": 332.6849, "MEAN_ANOMALY": 81.8375, "EPHEMERIS_TYPE": 0, "CLASSIFICATION_TYPE": "U", "NORAD_CAT_ID": 31614, "ELEMENT_SET_NO": 999, "REV_AT_EPOCH": 96609, "BSTAR": 0.0079882071, "MEAN_MOTION_DOT": 0.00099588, "MEAN_MOTION_DDOT": 0}, "tle": {"line1": "1 31614U 99025BZU 25358.72894796  .00099588  00000+0  79882-2 0  9999", "line2": "2 31614  98.9741 266.3069 0017745 332.6849  81.8375 14.99477571966092"}}, "geometry": {"type": "Point", "coordinates": [-96.1186150384839, 27.527017035029385]}}]}